{
  "type": "FeatureCollection",
  "features": [
    {
      "type": "Feature",
      "properties": { "name": "Bengaluru" },
      "geometry": { "type": "Point", "coordinates": [77.5946, 12.9716] }
    },
    {
      "type": "Feature",
      "properties": { "name": "Mysuru" },
      "geometry": { "type": "Point", "coordinates": [76.6394, 12.2958] }
    },
    {
      "type": "Feature",
      "properties": { "name": "Hubballi" },
      "geometry": { "type": "Point", "coordinates": [75.124, 15.3647] }
    },
    {
      "type": "Feature",
      "properties": { "name": "Ballari" },
      "geometry": { "type": "Point", "coordinates": [76.9214, 15.1394] }
    },
    {
      "type": "Feature",
      "properties": { "name": "Davangere" },
      "geometry": { "type": "Point", "coordinates": [75.9218, 14.4644] }
    },
    {
      "type": "Feature",
      "properties": { "name": "Chitradurga" },
      "geometry": { "type": "Point", "coordinates": [76.4, 14.2266] }
    }
  ]
}
